{"type": "FeatureCollection", "features": [{"type": "Feature", "properties": {"norad_id": 22490, "name": "SCD 1", "group": "resource", "lat": 24.76077101739915, "lon": -28.177015586088967, "alt_km": 716.0788967736698, "timestamp": "2025-12-19T22:41:52.035394+00:00", "meta": {"OBJECT_NAME": "SCD 1", "OBJECT_ID": "1993-009B", "EPOCH": "2025-12-18T10:33:14.558976", "MEAN_MOTION": 14.46002995, "ECCENTRICITY": 0.00420424, "INCLINATION": 24.9686, "RA_OF_ASC_NODE": 243.5007, "ARG_OF_PERICENTER": 25.3935, "MEAN_ANOMALY": 135.5853, "EPHEMERIS_TYPE": 0, "CLASSIFICATION_TYPE": "U", "NORAD_CAT_ID": 22490, "ELEMENT_SET_NO": 999, "REV_AT_EPOCH": 73492, "BSTAR": 7.3091886e-05, "MEAN_MOTION_DOT": 4.52e-06, "MEAN_MOTION_DDOT": 0}, "tle": {"line1": "1 22490U 93009B   25352.43975184  .00000452  00000+0  73092-4 0  9991", "line2": "2 22490  24.9686 243.5007 0042042  25.3935 135.5853 14.46002995734929"}}, "geometry": {"type": "Point", "coordinates": [-28.177015586088967, 24.76077101739915]}}, {"type": "Feature", "properties": {"norad_id": 25397, "name": "TECHSAT 1B (GO-32)", "group": "resource", "lat": 18.66394652093962, "lon": -25.741881586204197, "alt_km": 809.5798110842725, "timestamp": "2025-12-19T22:41:52.035421+00:00", "meta": {"OBJECT_NAME": "TECHSAT 1B (GO-32)", "OBJECT_ID": "1998-043D", "EPOCH": "2025-12-19T05:45:01.522080", "MEAN_MOTION": 14.24378852, "ECCENTRICITY": 0.0001867, "INCLINATION": 98.9925, "RA_OF_ASC_NODE": 336.6018, "ARG_OF_PERICENTER": 47.1475, "MEAN_ANOMALY": 312.9859, "EPHEMERIS_TYPE": 0, "CLASSIFICATION_TYPE": "U", "NORAD_CAT_ID": 25397, "ELEMENT_SET_NO": 999, "REV_AT_EPOCH": 42571, "BSTAR": 4.5722e-05, "MEAN_MOTION_DOT": 5.9e-07, "MEAN_MOTION_DDOT": 0}, "tle": {"line1": "1 25397U 98043D   25353.23960095  .00000059  00000+0  45722-4 0  9999", "line2": "2 25397  98.9925 336.6018 0001867  47.1475 312.9859 14.24378852425717"}}, "geometry": {"type": "Point", "coordinates": [-25.741881586204197, 18.66394652093962]}}, {"type": "Feature", "properties": {"norad_id": 25504, "name": "SCD 2", "group": "resource", "lat": 22.743219478418474, "lon": -146.6658037044633, "alt_km": 733.9810312030249, "timestamp": "2025-12-19T22:41:52.035437+00:00", "meta": {"OBJECT_NAME": "SCD 2", "OBJECT_ID": "1998-060A", "EPOCH": "2025-12-19T16:11:25.681920", "MEAN_MOTION": 14.4542685, "ECCENTRICITY": 0.0016943, "INCLINATION": 24.9945, "RA_OF_ASC_NODE": 99.1342, "ARG_OF_PERICENTER": 26.9849, "MEAN_ANOMALY": 112.7893, "EPHEMERIS_TYPE": 0, "CLASSIFICATION_TYPE": "U", "NORAD_CAT_ID": 25504, "ELEMENT_SET_NO": 999, "REV_AT_EPOCH": 43432, "BSTAR": 4.7822e-05, "MEAN_MOTION_DOT": 3.53e-06, "MEAN_MOTION_DDOT": 0}, "tle": {"line1": "1 25504U 98060A   25353.67460280  .00000353  00000+0  47822-4 0  9997", "line2": "2 25504  24.9945  99.1342 0016943  26.9849 112.7893 14.45426850434326"}}, "geometry": {"type": "Point", "coordinates": [-146.6658037044633, 22.743219478418474]}}, {"type": "Feature", "properties": {"norad_id": 25757, "name": "DLR-TUBSAT", "group": "resource", "lat": -61.02123644314033, "lon": 142.71511711992693, "alt_km": 721.882529040593, "timestamp": "2025-12-19T22:41:52.035464+00:00", "meta": {"OBJECT_NAME": "DLR-TUBSAT", "OBJECT_ID": "1999-029B", "EPOCH": "2025-12-17T13:22:10.787520", "MEAN_MOTION": 14.52359578, "ECCENTRICITY": 0.00141996, "INCLINATION": 98.6566, "RA_OF_ASC_NODE": 336.2196, "ARG_OF_PERICENTER": 177.8976, "MEAN_ANOMALY": 182.2281, "EPHEMERIS_TYPE": 0, "CLASSIFICATION_TYPE": "U", "NORAD_CAT_ID": 25757, "ELEMENT_SET_NO": 999, "REV_AT_EPOCH": 40688, "BSTAR": 3.7650132e-05, "MEAN_MOTION_DOT": 1.05e-06, "MEAN_MOTION_DDOT": 0}, "tle": {"line1": "1 25757U 99029B   25351.55706930  .00000105  00000+0  37650-4 0  9996", "line2": "2 25757  98.6566 336.2196 0014199 177.8976 182.2281 14.52359578406886"}}, "geometry": {"type": "Point", "coordinates": [142.71511711992693, -61.02123644314033]}}, {"type": "Feature", "properties": {"norad_id": 25994, "name": "TERRA", "group": "resource", "lat": 13.48927916810638, "lon": -132.7076933218489, "alt_km": 691.1520387804403, "timestamp": "2025-12-19T22:41:52.035479+00:00", "meta": {"OBJECT_NAME": "TERRA", "OBJECT_ID": "1999-068A", "EPOCH": "2025-12-19T17:28:53.309856", "MEAN_MOTION": 14.60909243, "ECCENTRICITY": 0.000355, "INCLINATION": 97.9739, "RA_OF_ASC_NODE": 45.1561, "ARG_OF_PERICENTER": 80.717, "MEAN_ANOMALY": 23.1037, "EPHEMERIS_TYPE": 0, "CLASSIFICATION_TYPE": "U", "NORAD_CAT_ID": 25994, "ELEMENT_SET_NO": 999, "REV_AT_EPOCH": 38340, "BSTAR": 7.775e-05, "MEAN_MOTION_DOT": 3.36e-06, "MEAN_MOTION_DDOT": 0}, "tle": {"line1": "1 25994U 99068A   25353.72839479  .00000336  00000+0  77750-4 0  9999", "line2": "2 25994  97.9739  45.1561 0003550  80.7170  23.1037 14.60909243383405"}}, "geometry": {"type": "Point", "coordinates": [-132.7076933218489, 13.48927916810638]}}, {"type": "Feature", "properties": {"norad_id": 27004, "name": "MAROC-TUBSAT", "group": "resource", "lat": -31.873221767163532, "lon": 168.6805242708105, "alt_km": 1003.750047085322, "timestamp": "2025-12-19T22:41:52.035491+00:00", "meta": {"OBJECT_NAME": "MAROC-TUBSAT", "OBJECT_ID": "2001-056D", "EPOCH": "2025-12-19T10:43:52.540032", "MEAN_MOTION": 13.70253235, "ECCENTRICITY": 0.0019165, "INCLINATION": 99.7914, "RA_OF_ASC_NODE": 162.0096, "ARG_OF_PERICENTER": 242.2818, "MEAN_ANOMALY": 146.9, "EPHEMERIS_TYPE": 0, "CLASSIFICATION_TYPE": "U", "NORAD_CAT_ID": 27004, "ELEMENT_SET_NO": 999, "REV_AT_EPOCH": 20157, "BSTAR": 2.2413e-05, "MEAN_MOTION_DOT": -2.7e-07, "MEAN_MOTION_DDOT": 0}, "tle": {"line1": "1 27004U 01056D   25353.44713588 -.00000027  00000+0  22413-4 0  9998", "line2": "2 27004  99.7914 162.0096 0019165 242.2818 146.9000 13.70253235201573"}}, "geometry": {"type": "Point", "coordinates": [168.6805242708105, -31.873221767163532]}}, {"type": "Feature", "properties": {"norad_id": 27424, "name": "AQUA", "group": "resource", "lat": 63.82411347593729, "lon": -62.56196061728854, "alt_km": 680.3767634495443, "timestamp": "2025-12-19T22:41:52.035503+00:00", "meta": {"OBJECT_NAME": "AQUA", "OBJECT_ID": "2002-022A", "EPOCH": "2025-12-18T00:44:29.182848", "MEAN_MOTION": 14.61821302, "ECCENTRICITY": 0.00012878, "INCLINATION": 98.4043, "RA_OF_ASC_NODE": 312.9961, "ARG_OF_PERICENTER": 113.4651, "MEAN_ANOMALY": 320.6588, "EPHEMERIS_TYPE": 0, "CLASSIFICATION_TYPE": "U", "NORAD_CAT_ID": 27424, "ELEMENT_SET_NO": 999, "REV_AT_EPOCH": 25680, "BSTAR": 0.00017905095, "MEAN_MOTION_DOT": 8.45e-06, "MEAN_MOTION_DDOT": 0}, "tle": {"line1": "1 27424U 02022A   25352.03089332  .00000845  00000+0  17905-3 0  9991", "line2": "2 27424  98.4043 312.9961 0001287 113.4651 320.6588 14.61821302256800"}}, "geometry": {"type": "Point", "coordinates": [-62.56196061728854, 63.82411347593729]}}, {"type": "Feature", "properties": {"norad_id": 28051, "name": "IRS-P6 (RESOURCESAT-1)", "group": "resource", "lat": -17.33586487996282, "lon": 36.604353307066866, "alt_km": 822.4974229524178, "timestamp": "2025-12-19T22:41:52.035513+00:00", "meta": {"OBJECT_NAME": "IRS-P6 (RESOURCESAT-1)", "OBJECT_ID": "2003-046A", "EPOCH": "2025-12-19T18:24:05.896224", "MEAN_MOTION": 14.36077472, "ECCENTRICITY": 0.0064587, "INCLINATION": 98.2171, "RA_OF_ASC_NODE": 33.8484, "ARG_OF_PERICENTER": 159.6605, "MEAN_ANOMALY": 338.0753, "EPHEMERIS_TYPE": 0, "CLASSIFICATION_TYPE": "U", "NORAD_CAT_ID": 28051, "ELEMENT_SET_NO": 999, "REV_AT_EPOCH": 15477, "BSTAR": 4.3531e-05, "MEAN_MOTION_DOT": 8.9e-07, "MEAN_MOTION_DDOT": 0}, "tle": {"line1": "1 28051U 03046A   25353.76673491  .00000089  00000+0  43531-4 0  9996", "line2": "2 28051  98.2171  33.8484 0064587 159.6605 338.0753 14.36077472154772"}}, "geometry": {"type": "Point", "coordinates": [36.604353307066866, -17.33586487996282]}}, {"type": "Feature", "properties": {"norad_id": 28220, "name": "SHIYAN-1 (SY-1)", "group": "resource", "lat": 79.80048385372356, "lon": 5.456546764718464, "alt_km": 476.49305745910806, "timestamp": "2025-12-19T22:41:52.035524+00:00", "meta": {"OBJECT_NAME": "SHIYAN-1 (SY-1)", "OBJECT_ID": "2004-012A", "EPOCH": "2025-12-19T03:28:38.259264", "MEAN_MOTION": 15.28303655, "ECCENTRICITY": 0.0005285, "INCLINATION": 97.8932, "RA_OF_ASC_NODE": 55.062, "ARG_OF_PERICENTER": 299.4151, "MEAN_ANOMALY": 60.656, "EPHEMERIS_TYPE": 0, "CLASSIFICATION_TYPE": "U", "NORAD_CAT_ID": 28220, "ELEMENT_SET_NO": 999, "REV_AT_EPOCH": 18354, "BSTAR": 0.00036633035, "MEAN_MOTION_DOT": 0.00010025, "MEAN_MOTION_DDOT": 0}, "tle": {"line1": "1 28220U 04012A   25353.14488726  .00010025  00000+0  36633-3 0  9990", "line2": "2 28220  97.8932  55.0620 0005285 299.4151  60.6560 15.28303655183545"}}, "geometry": {"type": "Point", "coordinates": [5.456546764718464, 79.80048385372356]}}, {"type": "Feature", "properties": {"norad_id": 28376, "name": "AURA", "group": "resource", "lat": 5.729264570431332, "lon": 125.04724399235651, "alt_km": 692.1374098635015, "timestamp": "2025-12-19T22:41:52.035535+00:00", "meta": {"OBJECT_NAME": "AURA", "OBJECT_ID": "2004-026A", "EPOCH": "2025-12-19T16:58:20.686368", "MEAN_MOTION": 14.60961568, "ECCENTRICITY": 0.0001355, "INCLINATION": 98.3193, "RA_OF_ASC_NODE": 303.9664, "ARG_OF_PERICENTER": 93.0579, "MEAN_ANOMALY": 267.0776, "EPHEMERIS_TYPE": 0, "CLASSIFICATION_TYPE": "U", "NORAD_CAT_ID": 28376, "ELEMENT_SET_NO": 999, "REV_AT_EPOCH": 14000, "BSTAR": 0.00015723, "MEAN_MOTION_DOT": 7.23e-06, "MEAN_MOTION_DDOT": 0}, "tle": {"line1": "1 28376U 04026A   25353.70718387  .00000723  00000+0  15723-3 0  9999", "line2": "2 28376  98.3193 303.9664 0001355  93.0579 267.0776 14.60961568140005"}}, "geometry": {"type": "Point", "coordinates": [125.04724399235651, 5.729264570431332]}}]}